{
  "version": 1,
  "fetchedAt": "2026-06-21T12:32:46.387Z",
  "source": "celestrak-gp",
  "counts": {
    "station": 24,
    "satellite": 520,
    "debris": 250
  },
  "objects": [
    {
      "id": "27424",
      "name": "AQUA",
      "noradId": 27424,
      "line1": "1 27424U 02022A   26171.42470413  .00000562  00000+0  12157-3 0  9998",
      "line2": "2 27424  98.4278 140.7722 0000982  55.9702  96.4678 14.62162126283744",
      "category": "satellite"
    },
    {
      "id": "39766",
      "name": "ALOS-2",
      "noradId": 39766,
      "line1": "1 39766U 14029A   26172.19713878  .00000862  00000+0  12234-3 0  9999",
      "line2": "2 39766  97.9219 269.3033 0001621  92.8155 267.3242 14.79466436652173",
      "category": "satellite"
    },
    {
      "id": "29268",
      "name": "ARIRANG-2 (KOMPSAT-2)",
      "noradId": 29268,
      "line1": "1 29268U 06031A   26172.19230924  .00000217  00000+0  49147-4 0  9993",
      "line2": "2 29268  97.8311 356.4445 0015834  63.0830  26.6564 14.64661985 62063",
      "category": "satellite"
    },
    {
      "id": "38338",
      "name": "ARIRANG-3 (KOMPSAT-3)",
      "noradId": 38338,
      "line1": "1 38338U 12025B   26172.13854225  .00000299  00000+0  68691-4 0  9996",
      "line2": "2 38338  98.1172 129.5303 0006781  99.5702 260.6266 14.62208950751921",
      "category": "satellite"
    },
    {
      "id": "39227",
      "name": "ARIRANG-5 (KOMPSAT-5)",
      "noradId": 39227,
      "line1": "1 39227U 13042A   26172.15665669  .00000146  00000+0  14730-4 0  9994",
      "line2": "2 39227  97.6201 358.8013 0005367 111.6189 248.5609 15.04494959704450",
      "category": "satellite"
    },
    {
      "id": "40298",
      "name": "ASNARO",
      "noradId": 40298,
      "line1": "1 40298U 14070A   26172.17645044  .00004294  00000+0  20546-3 0  9992",
      "line2": "2 40298  97.3444 248.1829 0006061 153.3263 206.8285 15.19480292644619",
      "category": "satellite"
    },
    {
      "id": "41785",
      "name": "ALSAT-1B",
      "noradId": 41785,
      "line1": "1 41785U 16059C   26172.18205410  .00000078  00000+0  19799-4 0  9998",
      "line2": "2 41785  97.7750 180.7737 0008435 205.3977 154.6817 14.72276343521164",
      "category": "satellite"
    },
    {
      "id": "60182",
      "name": "ALOS-4 (DAICHI-4)",
      "noradId": 60182,
      "line1": "1 60182U 24123A   26172.21648957  .00001001  00000+0  14090-3 0  9997",
      "line2": "2 60182  97.9248 269.3339 0001631  96.5969 263.5428 14.79475637106479",
      "category": "satellite"
    },
    {
      "id": "47719",
      "name": "ARKTIKA-M 1",
      "noradId": 47719,
      "line1": "1 47719U 21016A   26168.49069990 -.00000210  00000+0  00000+0 0  9999",
      "line2": "2 47719  63.2922  57.5948 7288528 269.9420  14.6012  2.00622504 38796",
      "category": "satellite"
    },
    {
      "id": "58584",
      "name": "ARKTIKA-M 2",
      "noradId": 58584,
      "line1": "1 58584U 23198A   26168.75920439  .00000145  00000+0  00000+0 0  9993",
      "line2": "2 58584  63.2243 154.2920 6902344 267.4286  18.7609  2.00612717 18330",
      "category": "satellite"
    }
  ]
}